[{"norad_id":"59552","company":"STARLINK","tle_line2":"2 59552  43.0032 195.2634 0001583 279.7412  80.3261 15.27575472 71035","launch_date":"2024-04-18","type":"LEO","tle_line1":"1 59552U 24074U   25204.96554400  .00001369  00000+0  59264-4 0  9997","satellite_name":"STARLINK-31750"},{"norad_id":"59553","company":"STARLINK","tle_line2":"2 59553  43.0030 200.4040 0001254 271.4620  88.6088 15.27580829 70892","launch_date":"2024-04-18","type":"LEO","tle_line1":"1 59553U 24074V   25204.04627679 -.00000323  00000+0 -22017-5 0  9994","satellite_name":"STARLINK-31723"},{"norad_id":"59554","company":"STARLINK","tle_line2":"2 59554  43.0001 163.2650 0001042 274.7620  85.3113 15.27580148 71332","launch_date":"2024-04-18","type":"LEO","tle_line1":"1 59554U 24074W   25204.24446346  .00000065  00000+0  11879-4 0  9991","satellite_name":"STARLINK-31724"},{"norad_id":"59555","company":"STARLINK","tle_line2":"2 59555  43.0004 195.4488 0001218 271.7384  88.3328 15.27577208 72202","launch_date":"2024-04-18","type":"LEO","tle_line1":"1 59555U 24074X   25204.99123991  .00000114  00000+0  13678-4 0  9996","satellite_name":"STARLINK-31730"},{"norad_id":"59556","company":"STARLINK","tle_line2":"2 59556  43.0021 194.9947 0001463 269.9724  90.0960 15.27582262 72214","launch_date":"2024-04-18","type":"LEO","tle_line1":"1 59556U 24074Y   25205.04506257  .00000622  00000+0  32117-4 0  9997","satellite_name":"STARLINK-31718"},{"norad_id":"59564","company":"STARLINK","tle_line2":"2 59564  42.9987 213.8571 0001734 272.5019  87.5634 15.27579223 71530","launch_date":"2024-04-23","type":"LEO","tle_line1":"1 59564U 24076A   25204.30479112  .00000613  00000+0  31819-4 0  9993","satellite_name":"STARLINK-31747"},{"norad_id":"59565","company":"STARLINK","tle_line2":"2 59565  42.9980 220.4319 0001175 278.1411  81.9307 15.27582283 71530","launch_date":"2024-04-23","type":"LEO","tle_line1":"1 59565U 24076B   25205.05599862  .00001818  00000+0  75551-4 0  9991","satellite_name":"STARLINK-31388"},{"norad_id":"59566","company":"STARLINK","tle_line2":"2 59566  43.0028 219.7931 0001312 269.0365  91.0336 15.27607626 71541","launch_date":"2024-04-23","type":"LEO","tle_line1":"1 59566U 24076C   25205.08794224  .00004152  00000+0  16019-3 0  9991","satellite_name":"STARLINK-31332"},{"norad_id":"59567","company":"STARLINK","tle_line2":"2 59567  43.0002 220.2368 0001234 271.2828  88.7882 15.27587967 71484","launch_date":"2024-04-23","type":"LEO","tle_line1":"1 59567U 24076D   25204.46158034 -.00000699  00000+0 -15884-4 0  9990","satellite_name":"STARLINK-31689"},{"norad_id":"59568","company":"STARLINK","tle_line2":"2 59568  43.0016 223.6527 0001505 262.8561  97.2120 15.27583369 71353","launch_date":"2024-04-23","type":"LEO","tle_line1":"1 59568U 24076E   25204.45595096  .00001214  00000+0  53641-4 0  9998","satellite_name":"STARLINK-31471"},{"norad_id":"59569","company":"STARLINK","tle_line2":"2 59569  43.0008 216.8660 0000987 265.3407  94.7332 15.27577199 71404","launch_date":"2024-04-23","type":"LEO","tle_line1":"1 59569U 24076F   25205.04363873 -.00002069  00000+0 -65697-4 0  9996","satellite_name":"STARLINK-31470"},{"norad_id":"59570","company":"STARLINK","tle_line2":"2 59570  42.9982 224.4458 0001425 270.8645  89.2044 15.27583140 71444","launch_date":"2024-04-23","type":"LEO","tle_line1":"1 59570U 24076G   25204.33289079  .00000572  00000+0  30292-4 0  9992","satellite_name":"STARLINK-31587"},{"norad_id":"59571","company":"STARLINK","tle_line2":"2 59571  42.9984 218.6945 0000552 266.0567 344.0822 15.27584564 71394","launch_date":"2024-04-23","type":"LEO","tle_line1":"1 59571U 24076H   25205.25003472 -.00004861  00000+0 -16724-3 0  9996","satellite_name":"STARLINK-31606"},{"norad_id":"59572","company":"STARLINK","tle_line2":"2 59572  43.0004 216.6559 0001239 265.5639  94.5071 15.27577410 71526","launch_date":"2024-04-23","type":"LEO","tle_line1":"1 59572U 24076J   25204.44921047  .00000045  00000+0  11158-4 0  9999","satellite_name":"STARLINK-31666"},{"norad_id":"59573","company":"STARLINK","tle_line2":"2 59573  43.0012 221.6909 0001423 271.6228  88.4461 15.27584805 71495","launch_date":"2024-04-23","type":"LEO","tle_line1":"1 59573U 24076K   25204.76875443 -.00001633  00000+0 -49804-4 0  9998","satellite_name":"STARLINK-31683"},{"norad_id":"59574","company":"STARLINK","tle_line2":"2 59574  42.9998 222.3297 0001234 272.3465  87.7245 15.27579972 71486","launch_date":"2024-04-23","type":"LEO","tle_line1":"1 59574U 24076L   25204.73677708 -.00000695  00000+0 -15722-4 0  9999","satellite_name":"STARLINK-31751"},{"norad_id":"59575","company":"STARLINK","tle_line2":"2 59575  43.0003 220.9505 0001558 274.1498  85.9175 15.27579604 71469","launch_date":"2024-04-23","type":"LEO","tle_line1":"1 59575U 24076M   25204.32695573  .00000969  00000+0  44747-4 0  9996","satellite_name":"STARLINK-31510"},{"norad_id":"59576","company":"STARLINK","tle_line2":"2 59576  42.9999 222.2859 0001244 273.0457  87.0252 15.27579875 71485","launch_date":"2024-04-23","type":"LEO","tle_line1":"1 59576U 24076N   25204.73291905  .00000592  00000+0  31016-4 0  9990","satellite_name":"STARLINK-31663"},{"norad_id":"59577","company":"STARLINK","tle_line2":"2 59577  43.0011 223.6446 0001484 262.3727  97.6956 15.27578904 71443","launch_date":"2024-04-23","type":"LEO","tle_line1":"1 59577U 24076P   25204.45852081  .00000605  00000+0  31493-4 0  9992","satellite_name":"STARLINK-31692"},{"norad_id":"59578","company":"STARLINK","tle_line2":"2 59578  43.0001 219.7078 0000916 278.3703  81.7045 15.27578168 71546","launch_date":"2024-04-23","type":"LEO","tle_line1":"1 59578U 24076Q   25205.07769208  .00000580  00000+0  30612-4 0  9994","satellite_name":"STARLINK-31685"},{"norad_id":"59579","company":"STARLINK","tle_line2":"2 59579  43.0016 220.1096 0000927 285.5969  74.4781 15.27607316 71538","launch_date":"2024-04-23","type":"LEO","tle_line1":"1 59579U 24076R   25205.01615533 -.00005442  00000+0 -18822-3 0  9992","satellite_name":"STARLINK-31686"},{"norad_id":"59580","company":"STARLINK","tle_line2":"2 59580  42.9992 221.5038 0001206 271.3349  88.7364 15.27577927 71492","launch_date":"2024-04-23","type":"LEO","tle_line1":"1 59580U 24076S   25204.74305140 -.00000281  00000+0 -68300-6 0  9998","satellite_name":"STARLINK-31668"},{"norad_id":"59581","company":"STARLINK","tle_line2":"2 59581  43.0022 225.7271 0001140 266.8299  93.2422 15.27579749 71393","launch_date":"2024-04-23","type":"LEO","tle_line1":"1 59581U 24076T   25204.04564817 -.00000453  00000+0 -69260-5 0  9996","satellite_name":"STARLINK-31690"},{"norad_id":"59582","company":"STARLINK","tle_line2":"2 59582  43.0105 220.3138 0004052 284.7829  75.2574 15.27701320 71370","launch_date":"2024-04-23","type":"LEO","tle_line1":"1 59582U 24076U   25205.04188554  .00054745  00000+0  19766-2 0  9992","satellite_name":"STARLINK-31701"},{"norad_id":"59583","company":"STARLINK","tle_line2":"2 59583  43.0029 219.8776 0001476 274.1014  85.9668 15.27578342 71371","launch_date":"2024-04-23","type":"LEO","tle_line1":"1 59583U 24076V   25205.09953638  .00000531  00000+0  28834-4 0  9993","satellite_name":"STARLINK-31697"},{"norad_id":"59584","company":"STARLINK","tle_line2":"2 59584  43.0034 220.3498 0002415 276.1242  83.9335 15.27603668 71532","launch_date":"2024-04-23","type":"LEO","tle_line1":"1 59584U 24076W   25205.04825955  .00004106  00000+0  15853-3 0  9997","satellite_name":"STARLINK-31662"},{"norad_id":"59585","company":"STARLINK","tle_line2":"2 59585  43.0000 222.3257 0001267 267.8112  92.2595 15.27579730 71485","launch_date":"2024-04-23","type":"LEO","tle_line1":"1 59585U 24076X   25204.73805654  .00000324  00000+0  21291-4 0  9999","satellite_name":"STARLINK-31702"},{"norad_id":"59586","company":"STARLINK","tle_line2":"2 59586  43.0014 177.5710 0001174 263.0836  96.9882 15.27573560 72008","launch_date":"2024-04-23","type":"LEO","tle_line1":"1 59586U 24076Y   25204.93710009  .00000105  00000+0  13343-4 0  9997","satellite_name":"STARLINK-31704"},{"norad_id":"59601","company":"STARLINK","tle_line2":"2 59601  43.0007 253.0562 0001617 270.8642  89.2024 15.27579419 70679","launch_date":"2024-04-28","type":"LEO","tle_line1":"1 59601U 24080A   25204.40746376  .00000238  00000+0  18165-4 0  9992","satellite_name":"STARLINK-31770"},{"norad_id":"59602","company":"STARLINK","tle_line2":"2 59602  42.9981 245.5483 0000898 276.7890  83.2860 15.27577337 70834","launch_date":"2024-04-28","type":"LEO","tle_line1":"1 59602U 24080B   25205.12848261  .00000766  00000+0  37355-4 0  9997","satellite_name":"STARLINK-31778"},{"norad_id":"59603","company":"STARLINK","tle_line2":"2 59603  43.0028 252.0682 0001701 280.3842  79.6818 15.27574736 70714","launch_date":"2024-04-28","type":"LEO","tle_line1":"1 59603U 24080C   25205.19033142  .00000637  00000+0  32687-4 0  9999","satellite_name":"STARLINK-31776"},{"norad_id":"59604","company":"STARLINK","tle_line2":"2 59604  42.9984 246.7988 0001101 285.6215  74.4515 15.27571566 69576","launch_date":"2024-04-28","type":"LEO","tle_line1":"1 59604U 24080D   25204.83610115 -.00001852  00000+0 -57800-4 0  9997","satellite_name":"STARLINK-31765"},{"norad_id":"59605","company":"STARLINK","tle_line2":"2 59605  43.0015 253.0014 0001554 278.5764  81.4912 15.27583096 69465","launch_date":"2024-04-28","type":"LEO","tle_line1":"1 59605U 24080E   25204.39975586  .00003904  00000+0  15129-3 0  9990","satellite_name":"STARLINK-31767"},{"norad_id":"59606","company":"STARLINK","tle_line2":"2 59606  43.0005 256.5749 0001541 264.1820  95.8856 15.27581897 69427","launch_date":"2024-04-28","type":"LEO","tle_line1":"1 59606U 24080F   25204.41597201  .00000729  00000+0  36003-4 0  9995","satellite_name":"STARLINK-31782"},{"norad_id":"59607","company":"STARLINK","tle_line2":"2 59607  43.0021 252.5442 0001623 271.8766  88.1900 15.27583628 70754","launch_date":"2024-04-28","type":"LEO","tle_line1":"1 59607U 24080G   25205.13907640  .00001833  00000+0  76124-4 0  9993","satellite_name":"STARLINK-31755"}]